[{"OBJECT_NAME":"STARLINK-3197","OBJECT_ID":"2021-115AK","EPOCH":"2026-03-09T11:34:01.878816","MEAN_MOTION":15.08839558,"ECCENTRICITY":0.00013711,"INCLINATION":53.2177,"RA_OF_ASC_NODE":140.0638,"ARG_OF_PERICENTER":100.0108,"MEAN_ANOMALY":260.1039,"EPHEMERIS_TYPE":0,"CLASSIFICATION_TYPE":"U","NORAD_CAT_ID":49757,"ELEMENT_SET_NO":999,"REV_AT_EPOCH":23564,"BSTAR":-3.5980162e-5,"MEAN_MOTION_DOT":-8.6e-6,"MEAN_MOTION_DDOT":0},{"OBJECT_NAME":"COSMOS 249 DEB","OBJECT_ID":"1968-091CY","EPOCH":"2026-03-09T21:07:59.374848","MEAN_MOTION":14.52283222,"ECCENTRICITY":0.03386329,"INCLINATION":62.3952,"RA_OF_ASC_NODE":260.6441,"ARG_OF_PERICENTER":176.0549,"MEAN_ANOMALY":184.3323,"EPHEMERIS_TYPE":0,"CLASSIFICATION_TYPE":"U","NORAD_CAT_ID":15535,"ELEMENT_SET_NO":999,"REV_AT_EPOCH":94239,"BSTAR":0.0018935012,"MEAN_MOTION_DOT":0.00016406,"MEAN_MOTION_DDOT":0}]
